sat17614
1 17614U 81053KH  20046.89458396  .00000291  00000-0  18636-3 0  9999
2 17614  82.7884 104.7732 0046318 305.0940 179.3464 13.99860151763570
